CCSDS_OMM_VERS = 2.0
CREATION_DATE  = 
ORIGINATOR     = 

OBJECT_NAME    = H-2A R/B
OBJECT_ID      = 2006-002B
CENTER_NAME    = EARTH
REF_FRAME      = TEME
TIME_SYSTEM    = UTC
MEAN_ELEMENT_THEORY = SGP/SGP4

EPOCH          = 2026-04-23T23:49:14.757024
MEAN_MOTION    = 15.17349909
ECCENTRICITY   = .0052552
INCLINATION    = 98.2499
RA_OF_ASC_NODE = 264.9710
ARG_OF_PERICENTER = 87.8455
MEAN_ANOMALY   = 272.8793

EPHEMERIS_TYPE = 0
CLASSIFICATION_TYPE = U
NORAD_CAT_ID   = 28932
ELEMENT_SET_NO = 999
REV_AT_EPOCH   = 10130
BSTAR          = .28278E-3
MEAN_MOTION_DOT = .5766E-4
MEAN_MOTION_DDOT = 0

CCSDS_OMM_VERS = 2.0
CREATION_DATE  = 
ORIGINATOR     = 

OBJECT_NAME    = RESURS-DK 1
OBJECT_ID      = 2006-021A
CENTER_NAME    = EARTH
REF_FRAME      = TEME
TIME_SYSTEM    = UTC
MEAN_ELEMENT_THEORY = SGP/SGP4

EPOCH          = 2026-04-24T03:45:56.921184
MEAN_MOTION    = 15.12977179
ECCENTRICITY   = .0003124
INCLINATION    = 69.9297
RA_OF_ASC_NODE = 119.3901
ARG_OF_PERICENTER = 343.6065
MEAN_ANOMALY   = 16.5000

EPHEMERIS_TYPE = 0
CLASSIFICATION_TYPE = U
NORAD_CAT_ID   = 29228
ELEMENT_SET_NO = 999
REV_AT_EPOCH   = 9440
BSTAR          = .10854E-3
MEAN_MOTION_DOT = .1812E-4
MEAN_MOTION_DDOT = 0

CCSDS_OMM_VERS = 2.0
CREATION_DATE  = 
ORIGINATOR     = 

OBJECT_NAME    = CZ-4B R/B
OBJECT_ID      = 2006-046C
CENTER_NAME    = EARTH
REF_FRAME      = TEME
TIME_SYSTEM    = UTC
MEAN_ELEMENT_THEORY = SGP/SGP4

EPOCH          = 2026-04-24T02:50:56.131008
MEAN_MOTION    = 15.17333156
ECCENTRICITY   = .0034607
INCLINATION    = 97.5510
RA_OF_ASC_NODE = 158.8971
ARG_OF_PERICENTER = 109.5383
MEAN_ANOMALY   = 250.9592

EPHEMERIS_TYPE = 0
CLASSIFICATION_TYPE = U
NORAD_CAT_ID   = 29507
ELEMENT_SET_NO = 999
REV_AT_EPOCH   = 6693
BSTAR          = .1692E-3
MEAN_MOTION_DOT = .3356E-4
MEAN_MOTION_DDOT = 0

CCSDS_OMM_VERS = 2.0
CREATION_DATE  = 
ORIGINATOR     = 

OBJECT_NAME    = CZ-2C R/B
OBJECT_ID      = 2007-010B
CENTER_NAME    = EARTH
REF_FRAME      = TEME
TIME_SYSTEM    = UTC
MEAN_ELEMENT_THEORY = SGP/SGP4

EPOCH          = 2026-04-24T03:59:27.165696
MEAN_MOTION    = 14.20261713
ECCENTRICITY   = .0059473
INCLINATION    = 98.4034
RA_OF_ASC_NODE = 225.1770
ARG_OF_PERICENTER = 160.9765
MEAN_ANOMALY   = 199.3653

EPHEMERIS_TYPE = 0
CLASSIFICATION_TYPE = U
NORAD_CAT_ID   = 31114
ELEMENT_SET_NO = 999
REV_AT_EPOCH   = 98617
BSTAR          = .5696E-4
MEAN_MOTION_DOT = .83E-6
MEAN_MOTION_DDOT = 0

CCSDS_OMM_VERS = 2.0
CREATION_DATE  = 
ORIGINATOR     = 

OBJECT_NAME    = COSMO-SKYMED 1
OBJECT_ID      = 2007-023A
CENTER_NAME    = EARTH
REF_FRAME      = TEME
TIME_SYSTEM    = UTC
MEAN_ELEMENT_THEORY = SGP/SGP4

EPOCH          = 2026-04-24T04:37:26.425344
MEAN_MOTION    = 14.96827855
ECCENTRICITY   = .0001216
INCLINATION    = 97.8870
RA_OF_ASC_NODE = 305.5995
ARG_OF_PERICENTER = 101.0317
MEAN_ANOMALY   = 259.1041

EPHEMERIS_TYPE = 0
CLASSIFICATION_TYPE = U
NORAD_CAT_ID   = 31598
ELEMENT_SET_NO = 999
REV_AT_EPOCH   = 2171
BSTAR          = .1758E-3
MEAN_MOTION_DOT = .1954E-4
MEAN_MOTION_DDOT = 0

CCSDS_OMM_VERS = 2.0
CREATION_DATE  = 
ORIGINATOR     = 

OBJECT_NAME    = COSMOS 2428
OBJECT_ID      = 2007-029A
CENTER_NAME    = EARTH
REF_FRAME      = TEME
TIME_SYSTEM    = UTC
MEAN_ELEMENT_THEORY = SGP/SGP4

EPOCH          = 2026-04-24T03:02:25.170144
MEAN_MOTION    = 14.12945755
ECCENTRICITY   = .0009164
INCLINATION    = 70.9391
RA_OF_ASC_NODE = 107.9729
ARG_OF_PERICENTER = 227.0906
MEAN_ANOMALY   = 132.9447

EPHEMERIS_TYPE = 0
CLASSIFICATION_TYPE = U
NORAD_CAT_ID   = 31792
ELEMENT_SET_NO = 999
REV_AT_EPOCH   = 97051
BSTAR          = -.80045E-4
MEAN_MOTION_DOT = -.197E-5
MEAN_MOTION_DDOT = 0

CCSDS_OMM_VERS = 2.0
CREATION_DATE  = 
ORIGINATOR     = 

OBJECT_NAME    = SL-16 R/B
OBJECT_ID      = 2007-029B
CENTER_NAME    = EARTH
REF_FRAME      = TEME
TIME_SYSTEM    = UTC
MEAN_ELEMENT_THEORY = SGP/SGP4

EPOCH          = 2026-04-24T04:05:40.444800
MEAN_MOTION    = 14.14843823
ECCENTRICITY   = .0002538
INCLINATION    = 70.9742
RA_OF_ASC_NODE = 76.7770
ARG_OF_PERICENTER = 268.2717
MEAN_ANOMALY   = 179.3234

EPHEMERIS_TYPE = 0
CLASSIFICATION_TYPE = U
NORAD_CAT_ID   = 31793
ELEMENT_SET_NO = 999
REV_AT_EPOCH   = 97180
BSTAR          = .17619E-3
MEAN_MOTION_DOT = .292E-5
MEAN_MOTION_DDOT = 0

CCSDS_OMM_VERS = 2.0
CREATION_DATE  = 
ORIGINATOR     = 

OBJECT_NAME    = KORONAS-FOTON
OBJECT_ID      = 2009-003A
CENTER_NAME    = EARTH
REF_FRAME      = TEME
TIME_SYSTEM    = UTC
MEAN_ELEMENT_THEORY = SGP/SGP4

EPOCH          = 2026-04-23T08:30:42.554016
MEAN_MOTION    = 15.44498639
ECCENTRICITY   = .00099559
INCLINATION    = 82.4309
RA_OF_ASC_NODE = 229.3984
ARG_OF_PERICENTER = 0.6503
MEAN_ANOMALY   = 359.4756

EPHEMERIS_TYPE = 0
CLASSIFICATION_TYPE = U
NORAD_CAT_ID   = 33504
ELEMENT_SET_NO = 999
REV_AT_EPOCH   = 95263
BSTAR          = .20248369E-3
MEAN_MOTION_DOT = .9437E-4
MEAN_MOTION_DDOT = 0

CCSDS_OMM_VERS = 2.0
CREATION_DATE  = 
ORIGINATOR     = 

OBJECT_NAME    = CZ-2C R/B
OBJECT_ID      = 2011-030B
CENTER_NAME    = EARTH
REF_FRAME      = TEME
TIME_SYSTEM    = UTC
MEAN_ELEMENT_THEORY = SGP/SGP4

EPOCH          = 2026-04-23T14:54:23.571360
MEAN_MOTION    = 14.81350183
ECCENTRICITY   = .0051751
INCLINATION    = 97.8614
RA_OF_ASC_NODE = 70.0127
ARG_OF_PERICENTER = 202.6467
MEAN_ANOMALY   = 331.1724

EPHEMERIS_TYPE = 0
CLASSIFICATION_TYPE = U
NORAD_CAT_ID   = 37731
ELEMENT_SET_NO = 999
REV_AT_EPOCH   = 79674
BSTAR          = .89100337E-4
MEAN_MOTION_DOT = .657E-5
MEAN_MOTION_DDOT = 0

CCSDS_OMM_VERS = 2.0
CREATION_DATE  = 
ORIGINATOR     = 

OBJECT_NAME    = H-2A R/B
OBJECT_ID      = 2012-025E
CENTER_NAME    = EARTH
REF_FRAME      = TEME
TIME_SYSTEM    = UTC
MEAN_ELEMENT_THEORY = SGP/SGP4

EPOCH          = 2026-04-23T15:06:16.528608
MEAN_MOTION    = 14.95429254
ECCENTRICITY   = .00444236
INCLINATION    = 98.4797
RA_OF_ASC_NODE = 84.3060
ARG_OF_PERICENTER = 164.0074
MEAN_ANOMALY   = 196.2559

EPHEMERIS_TYPE = 0
CLASSIFICATION_TYPE = U
NORAD_CAT_ID   = 38341
ELEMENT_SET_NO = 999
REV_AT_EPOCH   = 75493
BSTAR          = .10462038E-3
MEAN_MOTION_DOT = .1109E-4
MEAN_MOTION_DDOT = 0

CCSDS_OMM_VERS = 2.0
CREATION_DATE  = 
ORIGINATOR     = 

OBJECT_NAME    = SHIJIAN-16 (SJ-16)
OBJECT_ID      = 2013-057A
CENTER_NAME    = EARTH
REF_FRAME      = TEME
TIME_SYSTEM    = UTC
MEAN_ELEMENT_THEORY = SGP/SGP4

EPOCH          = 2026-04-24T05:06:50.579424
MEAN_MOTION    = 14.92469570
ECCENTRICITY   = .0016119
INCLINATION    = 74.9710
RA_OF_ASC_NODE = 98.8971
ARG_OF_PERICENTER = 356.0896
MEAN_ANOMALY   = 4.0163

EPHEMERIS_TYPE = 0
CLASSIFICATION_TYPE = U
NORAD_CAT_ID   = 39358
ELEMENT_SET_NO = 999
REV_AT_EPOCH   = 67829
BSTAR          = .38006E-4
MEAN_MOTION_DOT = .361E-5
MEAN_MOTION_DDOT = 0

CCSDS_OMM_VERS = 2.0
CREATION_DATE  = 
ORIGINATOR     = 

OBJECT_NAME    = SL-4 R/B
OBJECT_ID      = 2014-021B
CENTER_NAME    = EARTH
REF_FRAME      = TEME
TIME_SYSTEM    = UTC
MEAN_ELEMENT_THEORY = SGP/SGP4

EPOCH          = 2026-04-24T01:17:48.219648
MEAN_MOTION    = 15.40634846
ECCENTRICITY   = .0092751
INCLINATION    = 51.6057
RA_OF_ASC_NODE = 115.7061
ARG_OF_PERICENTER = 268.9804
MEAN_ANOMALY   = 90.0553

EPHEMERIS_TYPE = 0
CLASSIFICATION_TYPE = U
NORAD_CAT_ID   = 39679
ELEMENT_SET_NO = 999
REV_AT_EPOCH   = 66326
BSTAR          = .20401E-3
MEAN_MOTION_DOT = .939E-4
MEAN_MOTION_DDOT = 0

